[{"OBJECT_NAME":"STARLINK-31580","OBJECT_ID":"2024-065P","EPOCH":"2026-03-04T02:01:21.497376","MEAN_MOTION":15.30196283,"ECCENTRICITY":0.0001154,"INCLINATION":53.16,"RA_OF_ASC_NODE":309.6701,"ARG_OF_PERICENTER":84.9897,"MEAN_ANOMALY":275.1236,"EPHEMERIS_TYPE":0,"CLASSIFICATION_TYPE":"U","NORAD_CAT_ID":59434,"ELEMENT_SET_NO":999,"REV_AT_EPOCH":10804,"BSTAR":9.5815e-5,"MEAN_MOTION_DOT":2.479e-5,"MEAN_MOTION_DDOT":0},{"OBJECT_NAME":"STARLINK-31696","OBJECT_ID":"2024-065Q","EPOCH":"2026-03-04T02:09:43.178976","MEAN_MOTION":15.3019698,"ECCENTRICITY":0.0001153,"INCLINATION":53.1606,"RA_OF_ASC_NODE":307.5721,"ARG_OF_PERICENTER":84.3734,"MEAN_ANOMALY":275.7398,"EPHEMERIS_TYPE":0,"CLASSIFICATION_TYPE":"U","NORAD_CAT_ID":59435,"ELEMENT_SET_NO":999,"REV_AT_EPOCH":10807,"BSTAR":4.1423e-5,"MEAN_MOTION_DOT":8.68e-6,"MEAN_MOTION_DDOT":0},{"OBJECT_NAME":"STARLINK-31700","OBJECT_ID":"2024-065R","EPOCH":"2026-03-04T02:00:34.957152","MEAN_MOTION":15.30198144,"ECCENTRICITY":0.0001535,"INCLINATION":53.1594,"RA_OF_ASC_NODE":307.5332,"ARG_OF_PERICENTER":77.6473,"MEAN_ANOMALY":282.4699,"EPHEMERIS_TYPE":0,"CLASSIFICATION_TYPE":"U","NORAD_CAT_ID":59436,"ELEMENT_SET_NO":999,"REV_AT_EPOCH":10807,"BSTAR":9.1349e-6,"MEAN_MOTION_DOT":-8.9e-7,"MEAN_MOTION_DDOT":0},{"OBJECT_NAME":"STARLINK-31706","OBJECT_ID":"2024-065S","EPOCH":"2026-03-03T16:26:27.134592","MEAN_MOTION":15.30146348,"ECCENTRICITY":0.00011896,"INCLINATION":53.1604,"RA_OF_ASC_NODE":311.4502,"ARG_OF_PERICENTER":115.1216,"MEAN_ANOMALY":244.9908,"EPHEMERIS_TYPE":0,"CLASSIFICATION_TYPE":"U","NORAD_CAT_ID":59437,"ELEMENT_SET_NO":999,"REV_AT_EPOCH":10798,"BSTAR":7.6099162e-5,"MEAN_MOTION_DOT":1.892e-5,"MEAN_MOTION_DDOT":0},{"OBJECT_NAME":"STARLINK-31711","OBJECT_ID":"2024-065T","EPOCH":"2026-03-04T02:05:09.260736","MEAN_MOTION":15.30196559,"ECCENTRICITY":0.0001552,"INCLINATION":53.1611,"RA_OF_ASC_NODE":307.5508,"ARG_OF_PERICENTER":97.8986,"MEAN_ANOMALY":262.2191,"EPHEMERIS_TYPE":0,"CLASSIFICATION_TYPE":"U","NORAD_CAT_ID":59438,"ELEMENT_SET_NO":999,"REV_AT_EPOCH":10807,"BSTAR":9.4693e-5,"MEAN_MOTION_DOT":2.446e-5,"MEAN_MOTION_DDOT":0},{"OBJECT_NAME":"STARLINK-31708","OBJECT_ID":"2024-065U","EPOCH":"2026-03-04T01:51:28.526400","MEAN_MOTION":15.3018769,"ECCENTRICITY":0.0001368,"INCLINATION":53.1601,"RA_OF_ASC_NODE":307.4917,"ARG_OF_PERICENTER":97.9472,"MEAN_ANOMALY":262.1684,"EPHEMERIS_TYPE":0,"CLASSIFICATION_TYPE":"U","NORAD_CAT_ID":59439,"ELEMENT_SET_NO":999,"REV_AT_EPOCH":10807,"BSTAR":0.00013968,"MEAN_MOTION_DOT":3.778e-5,"MEAN_MOTION_DDOT":0},{"OBJECT_NAME":"STARLINK-31693","OBJECT_ID":"2024-065W","EPOCH":"2026-03-03T20:11:44.558880","MEAN_MOTION":15.3019203,"ECCENTRICITY":0.0001085,"INCLINATION":53.1606,"RA_OF_ASC_NODE":308.8632,"ARG_OF_PERICENTER":105.2204,"MEAN_ANOMALY":254.8917,"EPHEMERIS_TYPE":0,"CLASSIFICATION_TYPE":"U","NORAD_CAT_ID":59441,"ELEMENT_SET_NO":999,"REV_AT_EPOCH":10803,"BSTAR":3.1893e-5,"MEAN_MOTION_DOT":5.85e-6,"MEAN_MOTION_DDOT":0},{"OBJECT_NAME":"STARLINK-31622","OBJECT_ID":"2024-068B","EPOCH":"2026-03-04T00:33:22.074624","MEAN_MOTION":15.27583541,"ECCENTRICITY":0.000143,"INCLINATION":43.0006,"RA_OF_ASC_NODE":66.7309,"ARG_OF_PERICENTER":262.8092,"MEAN_ANOMALY":97.2597,"EPHEMERIS_TYPE":0,"CLASSIFICATION_TYPE":"U","NORAD_CAT_ID":59456,"ELEMENT_SET_NO":999,"REV_AT_EPOCH":10765,"BSTAR":0.00017396,"MEAN_MOTION_DOT":4.528e-5,"MEAN_MOTION_DDOT":0},{"OBJECT_NAME":"STARLINK-31319","OBJECT_ID":"2024-068C","EPOCH":"2026-03-04T01:33:03.294144","MEAN_MOTION":15.27581652,"ECCENTRICITY":0.0001182,"INCLINATION":43.0027,"RA_OF_ASC_NODE":62.7222,"ARG_OF_PERICENTER":248.0463,"MEAN_ANOMALY":112.0263,"EPHEMERIS_TYPE":0,"CLASSIFICATION_TYPE":"U","NORAD_CAT_ID":59457,"ELEMENT_SET_NO":999,"REV_AT_EPOCH":10770,"BSTAR":6.2792e-5,"MEAN_MOTION_DOT":1.466e-5,"MEAN_MOTION_DDOT":0},{"OBJECT_NAME":"STARLINK-31625","OBJECT_ID":"2024-068D","EPOCH":"2026-03-04T01:52:42.070944","MEAN_MOTION":15.27611818,"ECCENTRICITY":0.0001438,"INCLINATION":42.9995,"RA_OF_ASC_NODE":66.2763,"ARG_OF_PERICENTER":256.8073,"MEAN_ANOMALY":103.2618,"EPHEMERIS_TYPE":0,"CLASSIFICATION_TYPE":"U","NORAD_CAT_ID":59458,"ELEMENT_SET_NO":999,"REV_AT_EPOCH":10766,"BSTAR":-0.00020269,"MEAN_MOTION_DOT":-5.841e-5,"MEAN_MOTION_DDOT":0},{"OBJECT_NAME":"STARLINK-31631","OBJECT_ID":"2024-068E","EPOCH":"2026-03-04T01:12:42.212448","MEAN_MOTION":15.27588745,"ECCENTRICITY":0.0001447,"INCLINATION":43.0046,"RA_OF_ASC_NODE":62.614,"ARG_OF_PERICENTER":188.0969,"MEAN_ANOMALY":171.986,"EPHEMERIS_TYPE":0,"CLASSIFICATION_TYPE":"U","NORAD_CAT_ID":59459,"ELEMENT_SET_NO":999,"REV_AT_EPOCH":10770,"BSTAR":-4.8008e-5,"MEAN_MOTION_DOT":-1.583e-5,"MEAN_MOTION_DDOT":0},{"OBJECT_NAME":"STARLINK-31620","OBJECT_ID":"2024-068F","EPOCH":"2026-03-04T01:44:09.571200","MEAN_MOTION":15.27575696,"ECCENTRICITY":0.0001114,"INCLINATION":43.002,"RA_OF_ASC_NODE":62.7783,"ARG_OF_PERICENTER":273.5945,"MEAN_ANOMALY":86.4779,"EPHEMERIS_TYPE":0,"CLASSIFICATION_TYPE":"U","NORAD_CAT_ID":59460,"ELEMENT_SET_NO":999,"REV_AT_EPOCH":10770,"BSTAR":5.7119e-5,"MEAN_MOTION_DOT":1.31e-5,"MEAN_MOTION_DDOT":0},{"OBJECT_NAME":"STARLINK-31511","OBJECT_ID":"2024-068H","EPOCH":"2026-03-04T02:01:59.009664","MEAN_MOTION":15.27553479,"ECCENTRICITY":8.33e-5,"INCLINATION":42.9999,"RA_OF_ASC_NODE":66.329,"ARG_OF_PERICENTER":230.1922,"MEAN_ANOMALY":129.8857,"EPHEMERIS_TYPE":0,"CLASSIFICATION_TYPE":"U","NORAD_CAT_ID":59462,"ELEMENT_SET_NO":999,"REV_AT_EPOCH":10766,"BSTAR":0.00045717,"MEAN_MOTION_DOT":0.00012329,"MEAN_MOTION_DDOT":0},{"OBJECT_NAME":"STARLINK-31364","OBJECT_ID":"2024-068J","EPOCH":"2026-03-04T01:23:48.391008","MEAN_MOTION":15.27583226,"ECCENTRICITY":9.46e-5,"INCLINATION":43.0048,"RA_OF_ASC_NODE":62.6735,"ARG_OF_PERICENTER":233.0197,"MEAN_ANOMALY":127.0568,"EPHEMERIS_TYPE":0,"CLASSIFICATION_TYPE":"U","NORAD_CAT_ID":59463,"ELEMENT_SET_NO":999,"REV_AT_EPOCH":10770,"BSTAR":-8.77e-6,"MEAN_MOTION_DOT":-5.03e-6,"MEAN_MOTION_DDOT":0},{"OBJECT_NAME":"STARLINK-31597","OBJECT_ID":"2024-068K","EPOCH":"2026-03-04T01:47:09.220992","MEAN_MOTION":15.2758104,"ECCENTRICITY":0.0001439,"INCLINATION":43.0047,"RA_OF_ASC_NODE":66.2519,"ARG_OF_PERICENTER":276.8102,"MEAN_ANOMALY":83.2586,"EPHEMERIS_TYPE":0,"CLASSIFICATION_TYPE":"U","NORAD_CAT_ID":59464,"ELEMENT_SET_NO":999,"REV_AT_EPOCH":10761,"BSTAR":8.6823e-5,"MEAN_MOTION_DOT":2.128e-5,"MEAN_MOTION_DDOT":0},{"OBJECT_NAME":"STARLINK-31621","OBJECT_ID":"2024-068L","EPOCH":"2026-03-04T01:56:24.925056","MEAN_MOTION":15.27578957,"ECCENTRICITY":0.0001449,"INCLINATION":42.9983,"RA_OF_ASC_NODE":66.3083,"ARG_OF_PERICENTER":268.9723,"MEAN_ANOMALY":91.0962,"EPHEMERIS_TYPE":0,"CLASSIFICATION_TYPE":"U","NORAD_CAT_ID":59465,"ELEMENT_SET_NO":999,"REV_AT_EPOCH":10766,"BSTAR":3.9151e-5,"MEAN_MOTION_DOT":8.15e-6,"MEAN_MOTION_DDOT":0},{"OBJECT_NAME":"STARLINK-31462","OBJECT_ID":"2024-068M","EPOCH":"2026-03-04T01:36:03.435552","MEAN_MOTION":15.27578435,"ECCENTRICITY":0.0001156,"INCLINATION":43.0039,"RA_OF_ASC_NODE":66.1792,"ARG_OF_PERICENTER":261.3825,"MEAN_ANOMALY":98.6896,"EPHEMERIS_TYPE":0,"CLASSIFICATION_TYPE":"U","NORAD_CAT_ID":59466,"ELEMENT_SET_NO":999,"REV_AT_EPOCH":10766,"BSTAR":3.2773e-5,"MEAN_MOTION_DOT":6.4e-6,"MEAN_MOTION_DDOT":0},{"OBJECT_NAME":"STARLINK-31592","OBJECT_ID":"2024-068N","EPOCH":"2026-03-04T02:13:04.980864","MEAN_MOTION":15.27581356,"ECCENTRICITY":0.0001456,"INCLINATION":43.0015,"RA_OF_ASC_NODE":66.3905,"ARG_OF_PERICENTER":267.2344,"MEAN_ANOMALY":92.8341,"EPHEMERIS_TYPE":0,"CLASSIFICATION_TYPE":"U","NORAD_CAT_ID":59467,"ELEMENT_SET_NO":999,"REV_AT_EPOCH":10766,"BSTAR":-4.0128e-5,"MEAN_MOTION_DOT":-1.366e-5,"MEAN_MOTION_DDOT":0},{"OBJECT_NAME":"STARLINK-31267","OBJECT_ID":"2024-068P","EPOCH":"2026-03-04T00:22:44.158368","MEAN_MOTION":15.27575836,"ECCENTRICITY":0.0001006,"INCLINATION":43.0023,"RA_OF_ASC_NODE":62.3437,"ARG_OF_PERICENTER":249.4604,"MEAN_ANOMALY":110.614,"EPHEMERIS_TYPE":0,"CLASSIFICATION_TYPE":"U","NORAD_CAT_ID":59468,"ELEMENT_SET_NO":999,"REV_AT_EPOCH":10770,"BSTAR":4.9689e-5,"MEAN_MOTION_DOT":1.105e-5,"MEAN_MOTION_DDOT":0},{"OBJECT_NAME":"STARLINK-31381","OBJECT_ID":"2024-068Q","EPOCH":"2026-03-04T01:55:15.711744","MEAN_MOTION":15.27575167,"ECCENTRICITY":7.95e-5,"INCLINATION":43.0004,"RA_OF_ASC_NODE":62.8353,"ARG_OF_PERICENTER":243.2897,"MEAN_ANOMALY":116.7873,"EPHEMERIS_TYPE":0,"CLASSIFICATION_TYPE":"U","NORAD_CAT_ID":59469,"ELEMENT_SET_NO":999,"REV_AT_EPOCH":10770,"BSTAR":5.2887e-5,"MEAN_MOTION_DOT":1.193e-5,"MEAN_MOTION_DDOT":0},{"OBJECT_NAME":"STARLINK-31546","OBJECT_ID":"2024-068R","EPOCH":"2026-03-04T01:27:30.118464","MEAN_MOTION":15.27580794,"ECCENTRICITY":0.000126,"INCLINATION":43.0027,"RA_OF_ASC_NODE":62.689,"ARG_OF_PERICENTER":217.4984,"MEAN_ANOMALY":142.578,"EPHEMERIS_TYPE":0,"CLASSIFICATION_TYPE":"U","NORAD_CAT_ID":59470,"ELEMENT_SET_NO":999,"REV_AT_EPOCH":10770,"BSTAR":5.8851e-5,"MEAN_MOTION_DOT":1.358e-5,"MEAN_MOTION_DDOT":0},{"OBJECT_NAME":"STARLINK-31575","OBJECT_ID":"2024-068S","EPOCH":"2026-03-04T00:04:27.318144","MEAN_MOTION":15.27578852,"ECCENTRICITY":0.0001141,"INCLINATION":43.0034,"RA_OF_ASC_NODE":63.1163,"ARG_OF_PERICENTER":239.8986,"MEAN_ANOMALY":120.1753,"EPHEMERIS_TYPE":0,"CLASSIFICATION_TYPE":"U","NORAD_CAT_ID":59471,"ELEMENT_SET_NO":999,"REV_AT_EPOCH":10769,"BSTAR":2.0115e-7,"MEAN_MOTION_DOT":-2.57e-6,"MEAN_MOTION_DDOT":0},{"OBJECT_NAME":"STARLINK-31610","OBJECT_ID":"2024-068U","EPOCH":"2026-03-04T01:24:57.568032","MEAN_MOTION":15.27576105,"ECCENTRICITY":9.61e-5,"INCLINATION":43.0045,"RA_OF_ASC_NODE":66.1335,"ARG_OF_PERICENTER":262.8395,"MEAN_ANOMALY":97.2347,"EPHEMERIS_TYPE":0,"CLASSIFICATION_TYPE":"U","NORAD_CAT_ID":59473,"ELEMENT_SET_NO":999,"REV_AT_EPOCH":10766,"BSTAR":4.5087e-5,"MEAN_MOTION_DOT":9.79e-6,"MEAN_MOTION_DDOT":0}]
